SL-16 R/B               
1 22285U 92093B   25303.28122751 -.00000131  00000+0 -42762-4 0  9994
2 22285  71.0201 278.0216 0003565 180.8981 179.2136 14.15418004694705
COSMOS 2228             
1 22286U 92094A   25303.23089724  .00002966  00000+0  25846-3 0  9992
2 22286  82.5207   2.1552 0018658  25.9242 334.2910 14.96438169756543
SL-16 R/B               
1 22566U 93016B   25303.23799186 -.00000154  00000+0 -54559-4 0  9991
2 22566  71.0055 129.1674 0009703 175.4543 184.6670 14.15279751683718
COSMOS 2242             
1 22626U 93024A   25303.29247726  .00002811  00000+0  24882-3 0  9996
2 22626  82.5217  31.3552 0017024  28.6072 331.6080 14.95838022760896
SL-16 R/B               
1 22803U 93059B   25303.25342242 -.00000040  00000+0  37348-5 0  9992
2 22803  70.9893 286.1857 0015431  42.8106 317.4216 14.17202763661050
ARIANE 40 R/B           
1 22830U 93061H   25303.18124725  .00000333  00000+0  13832-3 0  9995
2 22830  98.5128   9.4932 0009814 314.5318  45.5064 14.32760189675412
COSMOS 2278             
1 23087U 94023A   25303.11047438 -.00000071  00000+0 -12264-4 0  9997
2 23087  71.0515  88.2857 0010679 236.4960 123.5142 14.14330951626342
SL-16 R/B               
1 23088U 94023B   25303.28747584  .00000177  00000+0  11604-3 0  9996
2 23088  71.0015 344.7400 0002283 181.2013 178.9104 14.14991251627642
SL-16 R/B               
1 23343U 94074B   25303.11343360  .00000662  00000+0  95871-4 0  9990
2 23343  97.7263 334.1394 0005209 291.5744 133.4267 14.79213376667947
SL-16 R/B               
1 23405U 94077B   25303.24925152 -.00000125  00000+0 -39615-4 0  9991
2 23405  70.9814 266.9040 0003450 318.4006  41.6853 14.15538358597771
ARIANE 40+ R/B          
1 23561U 95021B   25303.23061972  .00000442  00000+0  15543-3 0  9997
2 23561  98.4701  11.3350 0007109 164.2988 263.9089 14.39643645600475
SL-16 R/B               
1 23705U 95058B   25303.17911499  .00000326  00000+0  19100-3 0  9992
2 23705  71.0195  94.2557 0014090 312.0073  47.9850 14.15469830549387
